start=new Date('2022-08-06T00:00:00.000Z').valueOf();
sats=[{"SEMIMAJOR_AXIS":"6917.862","EPOCH":"2022-08-05T22:00:00.999936","REF_FRAME":"TEME","MEAN_MOTION_DDOT":"0.0000000000000","RA_OF_ASC_NODE":"157.8896","INCLINATION":"53.2155","APOAPSIS":"541.420","RCS_SIZE":"LARGE","CENTER_NAME":"EARTH","FILE":"3530042","LAUNCH_DATE":"2022-03-09","NORAD_CAT_ID":"51974","TIME_SYSTEM":"UTC","TLE_LINE1":"1 51974U 22025U   22217.91667824 -.00010042  00000-0 -61359-3 0  9990","GP_ID":"209659010","EPHEMERIS_TYPE":"0","ELEMENT_SET_NO":"999","ARG_OF_PERICENTER":"56.3819","MEAN_MOTION_DOT":"-0.00010042","COUNTRY_CODE":"US","ECCENTRICITY":"0.00024470","MEAN_ANOMALY":"209.5514","MEAN_ELEMENT_THEORY":"SGP4","OBJECT_TYPE":"PAYLOAD","PERIAPSIS":"538.035","DECAY_DATE":null,"SITE":"AFETR","OBJECT_ID":"2022-025U","OBJECT_NAME":"STARLINK-3672","TLE_LINE2":"2 51974  53.2155 157.8896 0002447  56.3819 209.5514 15.08845887  1306","PERIOD":"95.437","BSTAR":"-0.00061359000000","CLASSIFICATION_TYPE":"U","REV_AT_EPOCH":"130","MEAN_MOTION":"15.08845887"},{"MEAN_ANOMALY":"293.8661","MEAN_ELEMENT_THEORY":"SGP4","ECCENTRICITY":"0.00022390","COUNTRY_CODE":"US","PERIAPSIS":"538.135","OBJECT_TYPE":"PAYLOAD","MEAN_MOTION_DOT":"-0.00053462","CLASSIFICATION_TYPE":"U","BSTAR":"-0.00336410000000","MEAN_MOTION":"15.08859981","REV_AT_EPOCH":"2429","DECAY_DATE":null,"SITE":"AFETR","PERIOD":"95.436","TLE_LINE2":"2 51975  53.2179 157.5126 0002239  59.8242 293.8661 15.08859981 24295","OBJECT_NAME":"STARLINK-3674","OBJECT_ID":"2022-025V","APOAPSIS":"541.233","INCLINATION":"53.2179","RA_OF_ASC_NODE":"157.5126","MEAN_MOTION_DDOT":"0.0000000000000","FILE":"3530040","CENTER_NAME":"EARTH","RCS_SIZE":"LARGE","EPOCH":"2022-08-06T00:00:02.000160","SEMIMAJOR_AXIS":"6917.819","REF_FRAME":"TEME","ELEMENT_SET_NO":"999","ARG_OF_PERICENTER":"59.8242","TIME_SYSTEM":"UTC","LAUNCH_DATE":"2022-03-09","NORAD_CAT_ID":"51975","EPHEMERIS_TYPE":"0","GP_ID":"209635080","TLE_LINE1":"1 51975U 22025V   22218.00002315 -.00053462  00000-0 -33641-2 0  9995"},{"DECAY_DATE":null,"SITE":"AFETR","OBJECT_NAME":"STARLINK-3663","OBJECT_ID":"2022-025W","PERIOD":"95.436","TLE_LINE2":"2 51976  53.2179 167.8964 0002510  62.3646 208.5214 15.08860826  1303","CLASSIFICATION_TYPE":"U","BSTAR":"-0.00191460000000","REV_AT_EPOCH":"130","MEAN_MOTION":"15.08860826","MEAN_MOTION_DOT":"-0.00030649","MEAN_ANOMALY":"208.5214","MEAN_ELEMENT_THEORY":"SGP4","COUNTRY_CODE":"US","ECCENTRICITY":"0.00025100","OBJECT_TYPE":"PAYLOAD","PERIAPSIS":"537.945","TIME_SYSTEM":"UTC","LAUNCH_DATE":"2022-03-09","NORAD_CAT_ID":"51976","EPHEMERIS_TYPE":"0","GP_ID":"209658517","TLE_LINE1":"1 51976U 22025W   22217.91667824 -.00030649  00000-0 -19146-2 0  9993","ELEMENT_SET_NO":"999","ARG_OF_PERICENTER":"62.3646","EPOCH":"2022-08-05T22:00:00.999936","SEMIMAJOR_AXIS":"6917.817","REF_FRAME":"TEME","MEAN_MOTION_DDOT":"0.0000000000000","RA_OF_ASC_NODE":"167.8964","APOAPSIS":"541.418","INCLINATION":"53.2179","RCS_SIZE":"LARGE","FILE":"3530042","CENTER_NAME":"EARTH"},{"SEMIMAJOR_AXIS":"6917.818","EPOCH":"2022-08-05T22:00:00.999936","REF_FRAME":"TEME","MEAN_MOTION_DDOT":"0.0000000000000","RA_OF_ASC_NODE":"147.9057","INCLINATION":"53.2150","APOAPSIS":"541.178","RCS_SIZE":"LARGE","FILE":"3530042","CENTER_NAME":"EARTH","LAUNCH_DATE":"2022-03-09","NORAD_CAT_ID":"51977","TIME_SYSTEM":"UTC","TLE_LINE1":"1 51977U 22025X   22217.91667824 -.00016983  00000-0 -10508-2 0  9992","GP_ID":"209658769","EPHEMERIS_TYPE":"0","ELEMENT_SET_NO":"999","ARG_OF_PERICENTER":"70.2759","MEAN_MOTION_DOT":"-0.00016983","ECCENTRICITY":"0.00021610","COUNTRY_CODE":"US","MEAN_ELEMENT_THEORY":"SGP4","MEAN_ANOMALY":"210.6117","OBJECT_TYPE":"PAYLOAD","PERIAPSIS":"538.188","SITE":"AFETR","DECAY_DATE":null,"OBJECT_ID":"2022-025X","OBJECT_NAME":"STARLINK-3660","TLE_LINE2":"2 51977  53.2150 147.9057 0002161  70.2759 210.6117 15.08860358  1306","PERIOD":"95.436","BSTAR":"-0.00105080000000","CLASSIFICATION_TYPE":"U","MEAN_MOTION":"15.08860358","REV_AT_EPOCH":"130"},{"OBJECT_NAME":"STARLINK-3666","OBJECT_ID":"2022-025Y","TLE_LINE2":"2 51978  53.2148 167.8883 0002006  67.1040 263.7767 15.08869474  1306","PERIOD":"95.436","SITE":"AFETR","DECAY_DATE":null,"REV_AT_EPOCH":"130","MEAN_MOTION":"15.08869474","BSTAR":"-0.00166100000000","CLASSIFICATION_TYPE":"U","MEAN_MOTION_DOT":"-0.00026648","OBJECT_TYPE":"PAYLOAD","PERIAPSIS":"538.268","COUNTRY_CODE":"US","ECCENTRICITY":"0.00020060","MEAN_ELEMENT_THEORY":"SGP4","MEAN_ANOMALY":"263.7767","TLE_LINE1":"1 51978U 22025Y   22217.91667824 -.00026648  00000-0 -16610-2 0  9992","GP_ID":"209659510","EPHEMERIS_TYPE":"0","NORAD_CAT_ID":"51978","LAUNCH_DATE":"2022-03-09","TIME_SYSTEM":"UTC","ARG_OF_PERICENTER":"67.1040","ELEMENT_SET_NO":"999","REF_FRAME":"TEME","SEMIMAJOR_AXIS":"6917.790","EPOCH":"2022-08-05T22:00:00.999936","RCS_SIZE":"LARGE","CENTER_NAME":"EARTH","FILE":"3530042","RA_OF_ASC_NODE":"167.8883","MEAN_MOTION_DDOT":"0.0000000000000","INCLINATION":"53.2148","APOAPSIS":"541.043"},{"NORAD_CAT_ID":"51979","LAUNCH_DATE":"2022-03-09","TIME_SYSTEM":"UTC","GP_ID":"209634870","TLE_LINE1":"1 51979U 22025Z   22218.00002315 -.00051569  00000-0 -32430-2 0  9990","EPHEMERIS_TYPE":"0","ELEMENT_SET_NO":"999","ARG_OF_PERICENTER":"64.3875","SEMIMAJOR_AXIS":"6917.809","EPOCH":"2022-08-06T00:00:02.000160","REF_FRAME":"TEME","RA_OF_ASC_NODE":"167.5282","MEAN_MOTION_DDOT":"0.0000000000000","INCLINATION":"53.2170","APOAPSIS":"541.651","RCS_SIZE":"LARGE","FILE":"3530037","CENTER_NAME":"EARTH","SITE":"AFETR","DECAY_DATE":null,"OBJECT_ID":"2022-025Z","OBJECT_NAME":"STARLINK-3656","TLE_LINE2":"2 51979  53.2170 167.5282 0002858  64.3875 279.4823 15.08863423 24155","PERIOD":"95.436","BSTAR":"-0.00324300000000","CLASSIFICATION_TYPE":"U","MEAN_MOTION":"15.08863423","REV_AT_EPOCH":"2415","MEAN_MOTION_DOT":"-0.00051569","COUNTRY_CODE":"US","ECCENTRICITY":"0.00028580","MEAN_ANOMALY":"279.4823","MEAN_ELEMENT_THEORY":"SGP4","OBJECT_TYPE":"PAYLOAD","PERIAPSIS":"537.697"},{"PERIOD":"95.437","TLE_LINE2":"2 51980  53.2144 167.8894 0002156  72.1247 298.7632 15.08851835  1309","OBJECT_ID":"2022-025AA","OBJECT_NAME":"STARLINK-3649","SITE":"AFETR","DECAY_DATE":null,"MEAN_MOTION":"15.08851835","REV_AT_EPOCH":"130","CLASSIFICATION_TYPE":"U","BSTAR":"-0.00012354000000","MEAN_MOTION_DOT":"-0.00002255","PERIAPSIS":"538.218","OBJECT_TYPE":"PAYLOAD","MEAN_ANOMALY":"298.7632","MEAN_ELEMENT_THEORY":"SGP4","ECCENTRICITY":"0.00021560","COUNTRY_CODE":"US","EPHEMERIS_TYPE":"0","TLE_LINE1":"1 51980U 22025AA  22217.91667824 -.00002255  00000-0 -12354-3 0  9995","GP_ID":"209658018","TIME_SYSTEM":"UTC","LAUNCH_DATE":"2022-03-09","NORAD_CAT_ID":"51980","ARG_OF_PERICENTER":"72.1247","ELEMENT_SET_NO":"999","REF_FRAME":"TEME","EPOCH":"2022-08-05T22:00:00.999936","SEMIMAJOR_AXIS":"6917.844","FILE":"3530042","CENTER_NAME":"EARTH","RCS_SIZE":"LARGE","APOAPSIS":"541.201","INCLINATION":"53.2144","RA_OF_ASC_NODE":"167.8894","MEAN_MOTION_DDOT":"0.0000000000000"},{"LAUNCH_DATE":"2022-03-09","NORAD_CAT_ID":"51981","TIME_SYSTEM":"UTC","GP_ID":"209659269","TLE_LINE1":"1 51981U 22025AB  22217.91667824  .00002965  00000-0  20424-3 0  9999","EPHEMERIS_TYPE":"0","ELEMENT_SET_NO":"999","ARG_OF_PERICENTER":"51.6335","SEMIMAJOR_AXIS":"6917.832","EPOCH":"2022-08-05T22:00:00.999936","REF_FRAME":"TEME","RA_OF_ASC_NODE":"167.9080","MEAN_MOTION_DDOT":"0.0000000000000","INCLINATION":"53.2127","APOAPSIS":"541.316","RCS_SIZE":"LARGE","FILE":"3530042","CENTER_NAME":"EARTH","SITE":"AFETR","DECAY_DATE":null,"OBJECT_ID":"2022-025AB","OBJECT_NAME":"STARLINK-3635","TLE_LINE2":"2 51981  53.2127 167.9080 0002340  51.6335 239.1786 15.08855836  1308","PERIOD":"95.437","BSTAR":"0.00020424000000","CLASSIFICATION_TYPE":"U","REV_AT_EPOCH":"130","MEAN_MOTION":"15.08855836","MEAN_MOTION_DOT":"0.00002965","ECCENTRICITY":"0.00023400","COUNTRY_CODE":"US","MEAN_ANOMALY":"239.1786","MEAN_ELEMENT_THEORY":"SGP4","OBJECT_TYPE":"PAYLOAD","PERIAPSIS":"538.078"},{"REF_FRAME":"TEME","EPOCH":"2022-08-05T22:00:00.999936","SEMIMAJOR_AXIS":"6917.869","CENTER_NAME":"EARTH","FILE":"3530042","RCS_SIZE":"LARGE","APOAPSIS":"541.160","INCLINATION":"53.2150","RA_OF_ASC_NODE":"167.8883","MEAN_MOTION_DDOT":"0.0000000000000","EPHEMERIS_TYPE":"0","GP_ID":"209659011","TLE_LINE1":"1 51982U 22025AC  22217.91667824 -.00003106  00000-0 -17709-3 0  9992","TIME_SYSTEM":"UTC","LAUNCH_DATE":"2022-03-09","NORAD_CAT_ID":"51982","ARG_OF_PERICENTER":"61.9068","ELEMENT_SET_NO":"999","MEAN_MOTION_DOT":"-0.00003106","PERIAPSIS":"538.307","OBJECT_TYPE":"PAYLOAD","MEAN_ELEMENT_THEORY":"SGP4","MEAN_ANOMALY":"328.9802","COUNTRY_CODE":"US","ECCENTRICITY":"0.00020620","PERIOD":"95.437","TLE_LINE2":"2 51982  53.2150 167.8883 0002062  61.9068 328.9802 15.08843880  1305","OBJECT_ID":"2022-025AC","OBJECT_NAME":"STARLINK-3650","DECAY_DATE":null,"SITE":"AFETR","MEAN_MOTION":"15.08843880","REV_AT_EPOCH":"130","CLASSIFICATION_TYPE":"U","BSTAR":"-0.00017709000000"},{"MEAN_ELEMENT_THEORY":"SGP4","MEAN_ANOMALY":"336.9690","COUNTRY_CODE":"US","ECCENTRICITY":"0.00023400","PERIAPSIS":"538.106","OBJECT_TYPE":"PAYLOAD","MEAN_MOTION_DOT":"-0.00027115","CLASSIFICATION_TYPE":"U","BSTAR":"-0.00169160000000","MEAN_MOTION":"15.08846790","REV_AT_EPOCH":"2415","DECAY_DATE":null,"SITE":"AFETR","PERIOD":"95.437","TLE_LINE2":"2 51983  53.2121 167.5331 0002340  66.9072 336.9690 15.08846790 24153","OBJECT_NAME":"STARLINK-3655","OBJECT_ID":"2022-025AD","APOAPSIS":"541.343","INCLINATION":"53.2121","RA_OF_ASC_NODE":"167.5331","MEAN_MOTION_DDOT":"0.0000000000000","CENTER_NAME":"EARTH","FILE":"3530035","RCS_SIZE":"LARGE","EPOCH":"2022-08-06T00:00:02.000160","SEMIMAJOR_AXIS":"6917.860","REF_FRAME":"TEME","ELEMENT_SET_NO":"999","ARG_OF_PERICENTER":"66.9072","TIME_SYSTEM":"UTC","LAUNCH_DATE":"2022-03-09","NORAD_CAT_ID":"51983","EPHEMERIS_TYPE":"0","TLE_LINE1":"1 51983U 22025AD  22218.00002315 -.00027115  00000-0 -16916-2 0  9996","GP_ID":"209634838"}];
